{
  "type": "FeatureCollection",
  "features": [
    {
      "type": "Feature",
      "properties": {
        "norad_id": 37238,
        "name": "INTELSAT 17 (IS-17)",
        "group": "intelsat",
        "lat": -0.006465951220562524,
        "lon": -94.8285852529174,
        "alt_km": 35775.469162589055,
        "timestamp": "2025-12-25T07:00:33.710121+00:00",
        "meta_object_name": "INTELSAT 17 (IS-17)",
        "meta_object_id": "2010-065B",
        "meta_epoch": "2025-12-24T20:06:15.433632",
        "meta_mean_motion": 1.00271392,
        "meta_eccentricity": 0.00026599,
        "meta_inclination": 0.0109,
        "meta_ra_of_asc_node": 111.598,
        "meta_arg_of_pericenter": 171.6759,
        "meta_mean_anomaly": 177.8901,
        "meta_ephemeris_type": 0,
        "meta_classification_type": "U",
        "meta_norad_cat_id": 37238,
        "meta_element_set_no": 999,
        "meta_rev_at_epoch": 5150,
        "meta_bstar": 0,
        "meta_mean_motion_dot": 2e-07,
        "meta_mean_motion_ddot": 0,
        "tle_line1": "1 37238U 10065B   25358.83767863  .00000020  00000+0  00000+0 0  9996",
        "tle_line2": "2 37238   0.0109 111.5980 0002659 171.6759 177.8901  1.00271392 51507"
      },
      "geometry": {
        "type": "Point",
        "coordinates": [
          -94.8285852529174,
          -0.006465951220562524
        ]
      }
    },
    {
      "type": "Feature",
      "properties": {
        "norad_id": 37392,
        "name": "INTELSAT 28 (IS-28)",
        "group": "intelsat",
        "lat": 1.3530123251241994,
        "lon": 167.44121029325575,
        "alt_km": 35789.822393874965,
        "timestamp": "2025-12-25T07:00:33.710135+00:00",
        "meta_object_name": "INTELSAT 28 (IS-28)",
        "meta_object_id": "2011-016A",
        "meta_epoch": "2025-12-24T19:47:47.591232",
        "meta_mean_motion": 1.00272077,
        "meta_eccentricity": 0.00037281,
        "meta_inclination": 1.3539,
        "meta_ra_of_asc_node": 84.9255,
        "meta_arg_of_pericenter": 187.021,
        "meta_mean_anomaly": 86.8903,
        "meta_ephemeris_type": 0,
        "meta_classification_type": "U",
        "meta_norad_cat_id": 37392,
        "meta_element_set_no": 999,
        "meta_rev_at_epoch": 5153,
        "meta_bstar": 0,
        "meta_mean_motion_dot": -2.04e-06,
        "meta_mean_motion_ddot": 0,
        "tle_line1": "1 37392U 11016A   25358.82485638 -.00000204  00000+0  00000+0 0  9995",
        "tle_line2": "2 37392   1.3539  84.9255 0003728 187.0210  86.8903  1.00272077 51533"
      },
      "geometry": {
        "type": "Point",
        "coordinates": [
          167.44121029325575,
          1.3530123251241994
        ]
      }
    },
    {
      "type": "Feature",
      "properties": {
        "norad_id": 37834,
        "name": "INTELSAT 18 (IS-18)",
        "group": "intelsat",
        "lat": 0.01846001508289245,
        "lon": 19.206066940116674,
        "alt_km": 35786.1202105148,
        "timestamp": "2025-12-25T07:00:33.710147+00:00",
        "meta_object_name": "INTELSAT 18 (IS-18)",
        "meta_object_id": "2011-056A",
        "meta_epoch": "2025-12-24T20:48:11.805984",
        "meta_mean_motion": 1.00271652,
        "meta_eccentricity": 0.00018497,
        "meta_inclination": 0.0218,
        "meta_ra_of_asc_node": 289.2279,
        "meta_arg_of_pericenter": 359.8198,
        "meta_mean_anomaly": 296.6334,
        "meta_ephemeris_type": 0,
        "meta_classification_type": "U",
        "meta_norad_cat_id": 37834,
        "meta_element_set_no": 999,
        "meta_rev_at_epoch": 5206,
        "meta_bstar": 0,
        "meta_mean_motion_dot": 7.4e-07,
        "meta_mean_motion_ddot": 0,
        "tle_line1": "1 37834U 11056A   25358.86680331  .00000074  00000+0  00000+0 0  9995",
        "tle_line2": "2 37834   0.0218 289.2279 0001849 359.8198 296.6334  1.00271652 52062"
      },
      "geometry": {
        "type": "Point",
        "coordinates": [
          19.206066940116674,
          0.01846001508289245
        ]
      }
    },
    {
      "type": "Feature",
      "properties": {
        "norad_id": 38098,
        "name": "INTELSAT 22 (IS-22)",
        "group": "intelsat",
        "lat": -0.038596645023669086,
        "lon": -88.73725711992121,
        "alt_km": 35779.06020403453,
        "timestamp": "2025-12-25T07:00:33.710159+00:00",
        "meta_object_name": "INTELSAT 22 (IS-22)",
        "meta_object_id": "2012-011A",
        "meta_epoch": "2025-12-24T20:06:58.008960",
        "meta_mean_motion": 1.00270499,
        "meta_eccentricity": 0.00019374,
        "meta_inclination": 0.0288,
        "meta_ra_of_asc_node": 46.279,
        "meta_arg_of_pericenter": 250.8444,
        "meta_mean_anomaly": 170.3115,
        "meta_ephemeris_type": 0,
        "meta_classification_type": "U",
        "meta_norad_cat_id": 38098,
        "meta_element_set_no": 999,
        "meta_rev_at_epoch": 544,
        "meta_bstar": 0,
        "meta_mean_motion_dot": 0,
        "meta_mean_motion_ddot": 0,
        "tle_line1": "1 38098U 12011A   25358.83817140  .00000000  00000+0  00000+0 0  9996",
        "tle_line2": "2 38098   0.0288  46.2790 0001937 250.8444 170.3115  1.00270499  5446"
      },
      "geometry": {
        "type": "Point",
        "coordinates": [
          -88.73725711992121,
          -0.038596645023669086
        ]
      }
    },
    {
      "type": "Feature",
      "properties": {
        "norad_id": 38356,
        "name": "INTELSAT 19 (IS-19)",
        "group": "intelsat",
        "lat": 0.008267992457588238,
        "lon": 5.228743617527121,
        "alt_km": 35787.00284411997,
        "timestamp": "2025-12-25T07:00:33.710172+00:00",
        "meta_object_name": "INTELSAT 19 (IS-19)",
        "meta_object_id": "2012-030A",
        "meta_epoch": "2025-12-24T20:44:12.189408",
        "meta_mean_motion": 1.00272065,
        "meta_eccentricity": 0.00029357,
        "meta_inclination": 0.0122,
        "meta_ra_of_asc_node": 328.6064,
        "meta_arg_of_pericenter": 301.9112,
        "meta_mean_anomaly": 300.1721,
        "meta_ephemeris_type": 0,
        "meta_classification_type": "U",
        "meta_norad_cat_id": 38356,
        "meta_element_set_no": 999,
        "meta_rev_at_epoch": 4870,
        "meta_bstar": 0,
        "meta_mean_motion_dot": -3.5e-07,
        "meta_mean_motion_ddot": 0,
        "tle_line1": "1 38356U 12030A   25358.86402997 -.00000035  00000+0  00000+0 0  9996",
        "tle_line2": "2 38356   0.0122 328.6064 0002935 301.9112 300.1721  1.00272065 48703"
      },
      "geometry": {
        "type": "Point",
        "coordinates": [
          5.228743617527121,
          0.008267992457588238
        ]
      }
    },
    {
      "type": "Feature",
      "properties": {
        "norad_id": 38740,
        "name": "INTELSAT 20 (IS-20)",
        "group": "intelsat",
        "lat": -0.02052016734503157,
        "lon": -92.27099054679006,
        "alt_km": 35781.10626470655,
        "timestamp": "2025-12-25T07:00:33.710184+00:00",
        "meta_object_name": "INTELSAT 20 (IS-20)",
        "meta_object_id": "2012-043A",
        "meta_epoch": "2025-12-24T20:16:22.353024",
        "meta_mean_motion": 1.00279882,
        "meta_eccentricity": 0.00025898,
        "meta_inclination": 0.0111,
        "meta_ra_of_asc_node": 57.3518,
        "meta_arg_of_pericenter": 134.6528,
        "meta_mean_anomaly": 274.201,
        "meta_ephemeris_type": 0,
        "meta_classification_type": "U",
        "meta_norad_cat_id": 38740,
        "meta_element_set_no": 999,
        "meta_rev_at_epoch": 4900,
        "meta_bstar": 0,
        "meta_mean_motion_dot": -5e-08,
        "meta_mean_motion_ddot": 0,
        "tle_line1": "1 38740U 12043A   25358.84470316 -.00000005  00000+0  00000+0 0  9992",
        "tle_line2": "2 38740   0.0111  57.3518 0002589 134.6528 274.2010  1.00279882 49005"
      },
      "geometry": {
        "type": "Point",
        "coordinates": [
          -92.27099054679006,
          -0.02052016734503157
        ]
      }
    },
    {
      "type": "Feature",
      "properties": {
        "norad_id": 38749,
        "name": "INTELSAT 21 (IS-21)",
        "group": "intelsat",
        "lat": 0.007373511309120691,
        "lon": 141.18557170341103,
        "alt_km": 35789.773353990684,
        "timestamp": "2025-12-25T07:00:33.710196+00:00",
        "meta_object_name": "INTELSAT 21 (IS-21)",
        "meta_object_id": "2012-045A",
        "meta_epoch": "2025-12-24T21:23:00.970944",
        "meta_mean_motion": 1.00272669,
        "meta_eccentricity": 0.00016768,
        "meta_inclination": 0.0114,
        "meta_ra_of_asc_node": 311.8484,
        "meta_arg_of_pericenter": 312.5149,
        "meta_mean_anomaly": 92.0621,
        "meta_ephemeris_type": 0,
        "meta_classification_type": "U",
        "meta_norad_cat_id": 38749,
        "meta_element_set_no": 999,
        "meta_rev_at_epoch": 4877,
        "meta_bstar": 0,
        "meta_mean_motion_dot": -2.64e-06,
        "meta_mean_motion_ddot": 0,
        "tle_line1": "1 38749U 12045A   25358.89098346 -.00000264  00000+0  00000+0 0  9994",
        "tle_line2": "2 38749   0.0114 311.8484 0001676 312.5149  92.0621  1.00272669 48772"
      },
      "geometry": {
        "type": "Point",
        "coordinates": [
          141.18557170341103,
          0.007373511309120691
        ]
      }
    }
  ]
}